ONEWEB-0207             
1 48242U 21031AJ  26188.72998553  .00000182  00000+0  45734-3 0  9996
2 48242  87.8977 285.6070 0002140  92.5866 267.5509 13.14504338250990
ONEWEB-0208             
1 48243U 21031AK  26188.71175873  .00000209  00000+0  52811-3 0  9992
2 48243  87.8970 285.6163 0002326 105.7108 254.4278 13.14502301251008
ONEWEB-0200             
1 48244U 21031AL  26188.75140645 -.00000183  00000+0 -52893-3 0  9999
2 48244  87.8984 285.5966 0002126  99.7050 260.4320 13.14502297250930
ONEWEB-0217             
1 48245U 21031AM  26188.76726299 -.00000167  00000+0 -48364-3 0  9996
2 48245  87.8981 285.5975 0002360 105.4135 254.7256 13.14502718250883
ONEWEB-0211             
1 48767U 21045A   26188.71631250  .00000194  00000+0  47702-3 0  9990
2 48767  87.8996 254.9874 0002527 110.0602 250.0801 13.16197118247148
ONEWEB-0223             
1 48768U 21045B   26188.72874770  .00000038  00000+0  65604-4 0  9997
2 48768  87.9002 255.0990 0002158 108.7573 251.3791 13.15547730247106
ONEWEB-0230             
1 48769U 21045C   26188.70022852  .00000079  00000+0  17569-3 0  9993
2 48769  87.8985 255.1171 0001951  96.6015 263.5338 13.15547470247365
ONEWEB-0237             
1 48770U 21045D   26188.68913149  .00000026  00000+0  33824-4 0  9995
2 48770  87.8984 255.1208 0002397  99.3127 260.8275 13.15547599247087
ONEWEB-0235             
1 48771U 21045E   26188.73983144 -.00000063  00000+0 -20251-3 0  9996
2 48771  87.9001 255.0978 0002080 110.6553 249.4801 13.15549767247088
ONEWEB-0242             
1 48772U 21045F   26188.73350251  .00000002  00000+0 -29217-4 0  9998
2 48772  87.9003 255.0964 0001921 102.1255 258.0090 13.15548406247124
ONEWEB-0241             
1 48773U 21045G   26188.72081037  .00000144  00000+0  34828-3 0  9990
2 48773  87.8997 255.1136 0002250 103.3533 256.7848 13.15550864247033
ONEWEB-0243             
1 48774U 21045H   26188.67645753 -.00000154  00000+0 -44225-3 0  9991
2 48774  87.8990 255.1368 0001674 110.4526 249.6784 13.15550421247055
ONEWEB-0222             
1 48775U 21045J   26188.73586470 -.00000013  00000+0 -69927-4 0  9990
2 48775  87.9000 255.0940 0002157 100.8237 259.3136 13.15546908247103
ONEWEB-0244             
1 48776U 21045K   26188.68596531 -.00000233  00000+0 -65348-3 0  9990
2 48776  87.9002 255.0997 0002020 102.2277 257.9080 13.15548305247663
ONEWEB-0247             
1 48777U 21045L   26188.68279701 -.00000108  00000+0 -31991-3 0  9996
2 48777  87.8987 255.1297 0001836 122.6214 237.5094 13.15548563247104
ONEWEB-0245             
1 48778U 21045M   26188.67803580 -.00000144  00000+0 -41745-3 0  9992
2 48778  87.9001 255.1117 0002234 102.2044 257.9337 13.15549055247071
